[{"OBJECT_NAME":"TIANMU-1 09","OBJECT_ID":"2023-101C","EPOCH":"2026-03-09T22:17:34.703232","MEAN_MOTION":15.29080822,"ECCENTRICITY":0.00049013,"INCLINATION":97.267,"RA_OF_ASC_NODE":121.1263,"ARG_OF_PERICENTER":139.4293,"MEAN_ANOMALY":220.7314,"EPHEMERIS_TYPE":0,"CLASSIFICATION_TYPE":"U","NORAD_CAT_ID":57401,"ELEMENT_SET_NO":999,"REV_AT_EPOCH":14647,"BSTAR":0.00030540035,"MEAN_MOTION_DOT":8.553e-5,"MEAN_MOTION_DDOT":0},{"OBJECT_NAME":"STARLINK-33856","OBJECT_ID":"2025-083E","EPOCH":"2026-03-09T04:44:10.405824","MEAN_MOTION":15.27570778,"ECCENTRICITY":0.00011696,"INCLINATION":43.002,"RA_OF_ASC_NODE":7.8085,"ARG_OF_PERICENTER":283.6639,"MEAN_ANOMALY":76.4082,"EPHEMERIS_TYPE":0,"CLASSIFICATION_TYPE":"U","NORAD_CAT_ID":63638,"ELEMENT_SET_NO":999,"REV_AT_EPOCH":4999,"BSTAR":0.00088533193,"MEAN_MOTION_DOT":0.00024173,"MEAN_MOTION_DDOT":0}]
